{
  "type": "FeatureCollection",
  "features": [
    {
      "type": "Feature",
      "properties": {
        "norad_id": 30680,
        "name": "FENGYUN 1C DEB",
        "group": "fengyun-1c-debris",
        "lat": -63.079886969123756,
        "lon": 47.54924124335039,
        "alt_km": 1193.2349939945552,
        "timestamp": "2025-12-11T08:58:27.401698+00:00",
        "meta_object_name": "FENGYUN 1C DEB",
        "meta_object_id": "1999-025AQN",
        "meta_epoch": "2025-12-10T20:55:00.355296",
        "meta_mean_motion": 13.56081484,
        "meta_eccentricity": 0.0340553,
        "meta_inclination": 99.6293,
        "meta_ra_of_asc_node": 27.5255,
        "meta_arg_of_pericenter": 172.3821,
        "meta_mean_anomaly": 188.268,
        "meta_ephemeris_type": 0,
        "meta_classification_type": "U",
        "meta_norad_cat_id": 30680,
        "meta_element_set_no": 999,
        "meta_rev_at_epoch": 92228,
        "meta_bstar": 0.0063209,
        "meta_mean_motion_dot": 6.398e-05,
        "meta_mean_motion_ddot": 0,
        "tle_line1": "1 30680U 99025AQN 25344.87153189  .00006398  00000+0  63209-2 0  9999",
        "tle_line2": "2 30680  99.6293  27.5255 0340553 172.3821 188.2680 13.56081484922283"
      },
      "geometry": {
        "type": "Point",
        "coordinates": [
          47.54924124335039,
          -63.079886969123756
        ]
      }
    },
    {
      "type": "Feature",
      "properties": {
        "norad_id": 30683,
        "name": "FENGYUN 1C DEB",
        "group": "fengyun-1c-debris",
        "lat": 24.584845342653185,
        "lon": -7.536923521870907,
        "alt_km": 983.888717210898,
        "timestamp": "2025-12-11T08:58:27.401708+00:00",
        "meta_object_name": "FENGYUN 1C DEB",
        "meta_object_id": "1999-025AQR",
        "meta_epoch": "2025-12-11T00:24:49.623264",
        "meta_mean_motion": 14.00376006,
        "meta_eccentricity": 0.0138306,
        "meta_inclination": 99.4296,
        "meta_ra_of_asc_node": 356.4558,
        "meta_arg_of_pericenter": 229.2856,
        "meta_mean_anomaly": 157.9126,
        "meta_ephemeris_type": 0,
        "meta_classification_type": "U",
        "meta_norad_cat_id": 30683,
        "meta_element_set_no": 999,
        "meta_rev_at_epoch": 95527,
        "meta_bstar": 0.0018226,
        "meta_mean_motion_dot": 2.885e-05,
        "meta_mean_motion_ddot": 0,
        "tle_line1": "1 30683U 99025AQR 25345.01724101  .00002885  00000+0  18226-2 0  9993",
        "tle_line2": "2 30683  99.4296 356.4558 0138306 229.2856 157.9126 14.00376006955278"
      },
      "geometry": {
        "type": "Point",
        "coordinates": [
          -7.536923521870907,
          24.584845342653185
        ]
      }
    },
    {
      "type": "Feature",
      "properties": {
        "norad_id": 30684,
        "name": "FENGYUN 1C DEB",
        "group": "fengyun-1c-debris",
        "lat": 5.9508980059525305,
        "lon": 25.77961052932232,
        "alt_km": 1019.2313451057344,
        "timestamp": "2025-12-11T08:58:27.401718+00:00",
        "meta_object_name": "FENGYUN 1C DEB",
        "meta_object_id": "1999-025AQS",
        "meta_epoch": "2025-12-11T01:55:02.958240",
        "meta_mean_motion": 13.66799517,
        "meta_eccentricity": 0.0234691,
        "meta_inclination": 99.5314,
        "meta_ra_of_asc_node": 26.4933,
        "meta_arg_of_pericenter": 273.53,
        "meta_mean_anomaly": 83.9031,
        "meta_ephemeris_type": 0,
        "meta_classification_type": "U",
        "meta_norad_cat_id": 30684,
        "meta_element_set_no": 999,
        "meta_rev_at_epoch": 93606,
        "meta_bstar": 0.0012768,
        "meta_mean_motion_dot": 1.24e-05,
        "meta_mean_motion_ddot": 0,
        "tle_line1": "1 30684U 99025AQS 25345.07989535  .00001240  00000+0  12768-2 0  9993",
        "tle_line2": "2 30684  99.5314  26.4933 0234691 273.5300  83.9031 13.66799517936068"
      },
      "geometry": {
        "type": "Point",
        "coordinates": [
          25.77961052932232,
          5.9508980059525305
        ]
      }
    },
    {
      "type": "Feature",
      "properties": {
        "norad_id": 30686,
        "name": "FENGYUN 1C DEB",
        "group": "fengyun-1c-debris",
        "lat": 40.308438908651816,
        "lon": 6.872199255100375,
        "alt_km": 547.2679370901387,
        "timestamp": "2025-12-11T08:58:27.401729+00:00",
        "meta_object_name": "FENGYUN 1C DEB",
        "meta_object_id": "1999-025AQU",
        "meta_epoch": "2025-12-11T00:52:34.248864",
        "meta_mean_motion": 14.7384793,
        "meta_eccentricity": 0.0144182,
        "meta_inclination": 99.0332,
        "meta_ra_of_asc_node": 178.7406,
        "meta_arg_of_pericenter": 125.9157,
        "meta_mean_anomaly": 23.4194,
        "meta_ephemeris_type": 0,
        "meta_classification_type": "U",
        "meta_norad_cat_id": 30686,
        "meta_element_set_no": 999,
        "meta_rev_at_epoch": 99576,
        "meta_bstar": 0.0010623,
        "meta_mean_motion_dot": 8.159e-05,
        "meta_mean_motion_ddot": 0,
        "tle_line1": "1 30686U 99025AQU 25345.03650751  .00008159  00000+0  10623-2 0  9990",
        "tle_line2": "2 30686  99.0332 178.7406 0144182 125.9157  23.4194 14.73847930995769"
      },
      "geometry": {
        "type": "Point",
        "coordinates": [
          6.872199255100375,
          40.308438908651816
        ]
      }
    },
    {
      "type": "Feature",
      "properties": {
        "norad_id": 30688,
        "name": "FENGYUN 1C DEB",
        "group": "fengyun-1c-debris",
        "lat": -62.374276234796575,
        "lon": 75.7585382554673,
        "alt_km": 780.0184505317875,
        "timestamp": "2025-12-11T08:58:27.401739+00:00",
        "meta_object_name": "FENGYUN 1C DEB",
        "meta_object_id": "1999-025AQW",
        "meta_epoch": "2025-12-11T04:22:16.748256",
        "meta_mean_motion": 14.32674617,
        "meta_eccentricity": 0.0015125,
        "meta_inclination": 98.7012,
        "meta_ra_of_asc_node": 58.5516,
        "meta_arg_of_pericenter": 320.5325,
        "meta_mean_anomaly": 67.2969,
        "meta_ephemeris_type": 0,
        "meta_classification_type": "U",
        "meta_norad_cat_id": 30688,
        "meta_element_set_no": 999,
        "meta_rev_at_epoch": 97238,
        "meta_bstar": 0.0024328,
        "meta_mean_motion_dot": 6.584e-05,
        "meta_mean_motion_ddot": 0,
        "tle_line1": "1 30688U 99025AQW 25345.18213829  .00006584  00000+0  24328-2 0  9996",
        "tle_line2": "2 30688  98.7012  58.5516 0015125 320.5325  67.2969 14.32674617972387"
      },
      "geometry": {
        "type": "Point",
        "coordinates": [
          75.7585382554673,
          -62.374276234796575
        ]
      }
    },
    {
      "type": "Feature",
      "properties": {
        "norad_id": 30689,
        "name": "FENGYUN 1C DEB",
        "group": "fengyun-1c-debris",
        "lat": 32.59129229218569,
        "lon": -33.97485961327087,
        "alt_km": 828.2677402608751,
        "timestamp": "2025-12-11T08:58:27.401750+00:00",
        "meta_object_name": "FENGYUN 1C DEB",
        "meta_object_id": "1999-025AQX",
        "meta_epoch": "2025-12-10T11:25:33.921984",
        "meta_mean_motion": 14.11761894,
        "meta_eccentricity": 0.0111718,
        "meta_inclination": 98.7079,
        "meta_ra_of_asc_node": 330.7764,
        "meta_arg_of_pericenter": 109.6912,
        "meta_mean_anomaly": 44.0621,
        "meta_ephemeris_type": 0,
        "meta_classification_type": "U",
        "meta_norad_cat_id": 30689,
        "meta_element_set_no": 999,
        "meta_rev_at_epoch": 96858,
        "meta_bstar": 0.00051628872,
        "meta_mean_motion_dot": 9.56e-06,
        "meta_mean_motion_ddot": 0,
        "tle_line1": "1 30689U 99025AQX 25344.47608706  .00000956  00000+0  51629-3 0  9992",
        "tle_line2": "2 30689  98.7079 330.7764 0111718 109.6912  44.0621 14.11761894968580"
      },
      "geometry": {
        "type": "Point",
        "coordinates": [
          -33.97485961327087,
          32.59129229218569
        ]
      }
    },
    {
      "type": "Feature",
      "properties": {
        "norad_id": 30690,
        "name": "FENGYUN 1C DEB",
        "group": "fengyun-1c-debris",
        "lat": 50.458543201004474,
        "lon": 107.033261133943,
        "alt_km": 830.512259427378,
        "timestamp": "2025-12-11T08:58:27.401760+00:00",
        "meta_object_name": "FENGYUN 1C DEB",
        "meta_object_id": "1999-025AQY",
        "meta_epoch": "2025-12-10T08:58:49.407744",
        "meta_mean_motion": 14.0231016,
        "meta_eccentricity": 0.01049308,
        "meta_inclination": 99.159,
        "meta_ra_of_asc_node": 274.7593,
        "meta_arg_of_pericenter": 82.4429,
        "meta_mean_anomaly": 40.9422,
        "meta_ephemeris_type": 0,
        "meta_classification_type": "U",
        "meta_norad_cat_id": 30690,
        "meta_element_set_no": 999,
        "meta_rev_at_epoch": 95674,
        "meta_bstar": 0.0018096438,
        "meta_mean_motion_dot": 2.869e-05,
        "meta_mean_motion_ddot": 0,
        "tle_line1": "1 30690U 99025AQY 25344.37418296  .00002869  00000+0  18096-2 0  9991",
        "tle_line2": "2 30690  99.1590 274.7593 0104930  82.4429  40.9422 14.02310160956746"
      },
      "geometry": {
        "type": "Point",
        "coordinates": [
          107.033261133943,
          50.458543201004474
        ]
      }
    }
  ]
}